KUIPER-00320            
1 68601U 26072AE  26099.50837948  .00018603  00000+0  53417-3 0  9998
2 68601  51.8599 149.1270 0011369 138.2508 221.9347 15.35827421   816
