{
  "norad_id": 68601,
  "name": "KUIPER-00320",
  "history": [
    {
      "epoch": "2026-04-09T12:12:03.987072Z",
      "apogee_km": 466.2364620606095,
      "perigee_km": 450.6913988649221,
      "latitude_deg": -2.2873986133859913e-05,
      "longitude_deg": 128.35480417479485,
      "height_km": 465.01066052080154,
      "semi_major_axis_km": 6836.600930462765,
      "eccentricity": 0.0011369,
      "inclination_deg": 51.8599,
      "raan_deg": 149.127,
      "arg_perigee_deg": 138.2508,
      "mean_anomaly_deg": 221.9347,
      "mean_motion_rev_day": 15.35827421
    }
  ]
}